ONEWEB-0328             
1 49197U 21083M   24304.80765054  .00000040  00000+0  73801-4 0  9998
2 49197  87.8894  78.4550 0001413  95.0537 265.0754 13.13468985154167
ONEWEB-0331             
1 49198U 21083N   24305.11131944  .00000044  00000+0  79930-4 0  9992
2 49198  87.9072  93.6772 0001272  98.7385 261.3892 13.18684391152993
ONEWEB-0333             
1 49199U 21083P   24305.10759403 -.00000143  00000+0 -42595-3 0  9996
2 49199  87.8905  78.4363 0001642  95.0088 265.1228 13.13468148154213
ONEWEB-0334             
1 49200U 21083Q   24305.17692673  .00000117  00000+0  25526-3 0  9995
2 49200  87.9291  32.6360 0002728  95.3284 264.8161 13.20769347159671
ONEWEB-0335             
1 49201U 21083R   24305.10284868 -.00000085  00000+0 -26813-3 0  9998
2 49201  87.8906  78.4258 0001397  92.5756 267.5533 13.13469483154221
ONEWEB-0336             
1 49202U 21083S   24304.61563798  .00000265  00000+0  69005-3 0  9994
2 49202  87.8902  78.5173 0001643 101.4178 258.7135 13.13469624152862
ONEWEB-0337             
1 49203U 21083T   24305.08205099 -.00000451  00000+0 -12687-2 0  9996
2 49203  87.8905  78.4228 0001369  97.1448 262.9836 13.13470041154224
ONEWEB-0338             
1 49204U 21083U   24304.50223920  .00000116  00000+0  25448-3 0  9992
2 49204  87.9295  32.7610 0001934  92.0683 268.0672 13.20773337158310
ONEWEB-0339             
1 49205U 21083V   24304.78861857 -.00000245  00000+0 -70597-3 0  9990
2 49205  87.8901  78.4744 0001486  93.6699 266.4600 13.13468737154164
ONEWEB-0340             
1 49206U 21083W   24304.71769734 -.00000333  00000+0 -87625-3 0  9993
2 49206  87.9071  93.7517 0001377  94.5465 265.5825 13.18686442152912
ONEWEB-0341             
1 49207U 21083X   24305.18089106 -.00000005  00000+0 -44525-4 0  9993
2 49207  87.9072  93.6713 0001168  69.5631 290.5627 13.18687862152999
ONEWEB-0342             
1 49208U 21083Y   24305.19036286 -.00000231  00000+0 -60126-3 0  9991
2 49208  87.9290  32.6238 0001751 105.8457 254.2869 13.20771385159679
ONEWEB-0343             
1 49209U 21083Z   24304.72086689  .00000009  00000+0 -92283-5 0  9995
2 49209  87.9066  93.7620 0001650  69.0005 291.1303 13.18686555152983
ONEWEB-0344             
1 49210U 21083AA  24304.83148091  .00000440  00000+0  11689-2 0  9991
2 49210  87.8905  78.4866 0001093  89.7687 270.3567 13.13470566154176
ONEWEB-0345             
1 49211U 21083AB  24305.07744300 -.00000003  00000+0 -42270-4 0  9993
2 49211  87.8901  78.4087 0001056  90.0179 270.1071 13.13467514154210
ONEWEB-0346             
1 49212U 21083AC  24304.88211938  .00000075  00000+0  15723-3 0  9997
2 49212  87.9072  93.7400 0001351 106.5573 253.5708 13.18684656152942
ONEWEB-0348             
1 49213U 21083AD  24304.72635076  .00000169  00000+0  38421-3 0  9998
2 49213  87.9299  32.7007 0001156 117.4413 242.6838 13.20774014159645
ONEWEB-0350             
1 49214U 21083AE  24305.08697863 -.00000182  00000+0 -53229-3 0  9991
2 49214  87.8899  78.3977 0001197  92.5338 267.5928 13.13470639154242
ONEWEB-0351             
1 49215U 21083AF  24304.64414238  .00000143  00000+0  32097-3 0  9991
2 49215  87.9292  32.7099 0002221  79.3629 280.7754 13.20775073159602
ONEWEB-0352             
1 49216U 21083AG  24305.06794450  .00000260  00000+0  67581-3 0  9992
2 49216  87.8905  78.4367 0001690  80.8906 279.2414 13.13470247154330
ONEWEB-0354             
1 49217U 21083AH  24304.51800870 -.00000069  00000+0 -20114-3 0  9996
2 49217  87.9299  32.7252 0001401  98.6109 261.5183 13.20769483158316
ONEWEB-0355             
1 49218U 21083AJ  24304.79337936 -.00000311  00000+0 -88637-3 0  9999
2 49218  87.8904  78.4908 0001482  89.2272 270.9026 13.13470173154177
ONEWEB-0357             
1 49219U 21083AK  24305.19666385 -.00000133  00000+0 -35886-3 0  9998
2 49219  87.9292  32.6044 0001707  94.2597 265.8731 13.20770852159703
ONEWEB-0332             
1 49279U 21090A   24304.58650306  .00000327  00000+0  84840-3 0  9997
2 49279  87.9025  47.9581 0002377 100.0254 260.1144 13.14500851149469
ONEWEB-0347             
1 49280U 21090B   24304.95994355  .00000104  00000+0  22471-3 0  9990
2 49280  87.9295  32.6533 0002240 104.2700 255.8683 13.20772560152603
ONEWEB-0349             
1 49281U 21090C   24304.99148275 -.00000219  00000+0 -57020-3 0  9994
2 49281  87.9299  32.6494 0001796 103.7841 256.3492 13.20772559152689
ONEWEB-0353             
1 49282U 21090D   24304.73081616  .00000224  00000+0  56962-3 0  9990
2 49282  87.9028  47.9149 0001918  99.2942 260.8405 13.14502802150770
ONEWEB-0356             
1 49283U 21090E   24304.98991696 -.00000015  00000+0 -67642-4 0  9994
2 49283  87.9297  32.6428 0001892 137.9831 222.1448 13.20778129152682
ONEWEB-0358             
1 49284U 21090F   24304.64112864  .00000134  00000+0  29863-3 0  9992
2 49284  87.9296  32.6997 0001574 110.9884 249.1418 13.20774007153362
ONEWEB-0359             
1 49285U 21090G   24304.48644541  .00000097  00000+0  20734-3 0  9993
2 49285  87.9295  32.7465 0001245  95.1703 264.9573 13.20773038152035
ONEWEB-0360             
1 49286U 21090H   24305.23454393 -.00000157  00000+0 -41764-3 0  9997
2 49286  87.9295  32.6032 0001505  98.5187 261.6117 13.20770059152732
ONEWEB-0361             
1 49287U 21090J   24304.53378918  .00000049  00000+0  88572-4 0  9995
2 49287  87.9298  32.7375 0001722 104.7680 255.3644 13.20772838151805
ONEWEB-0362             
1 49288U 21090K   24304.77357084 -.00000336  00000+0 -87251-3 0  9996
2 49288  87.9176  63.1917 0001546  87.0010 273.1299 13.19725548149338
ONEWEB-0363             
1 49289U 21090L   24304.54960218  .00000024  00000+0  27678-4 0  9991
2 49289  87.9298  32.7293 0001601 115.1782 244.9517 13.20772417151818
ONEWEB-0364             
1 49290U 21090M   24304.96624186  .00000204  00000+0  47084-3 0  9992
2 49290  87.9300  32.6738 0001763 105.3557 254.7771 13.20770762153822
ONEWEB-0365             
1 49291U 21090N   24304.63139948 -.00000441  00000+0 -11347-2 0  9991
2 49291  87.9168  63.1914 0001639  93.8577 266.2743 13.19724727149296
ONEWEB-0366             
1 49292U 21090P   24304.72764508  .00000140  00000+0  34373-3 0  9997
2 49292  87.9027  47.9257 0001667 102.6754 257.4562 13.14505970150765
ONEWEB-0367             
1 49293U 21090Q   24304.54800142 -.00000030  00000+0 -10587-3 0  9994
2 49293  87.9297  32.7243 0001831  98.5956 261.5385 13.20772392151336
ONEWEB-0368             
1 49294U 21090R   24305.20298868  .00000134  00000+0  29807-3 0  9993
2 49294  87.9299  32.6259 0002572 111.7772 248.3635 13.20770573153873
ONEWEB-0369             
1 49295U 21090S   24304.62664432 -.00000774  00000+0 -19656-2 0  9995
2 49295  87.9174  63.2049 0001658  96.4526 263.6796 13.19726350147999
ONEWEB-0370             
1 49296U 21090T   24305.23928057  .00000041  00000+0  69491-4 0  9999
2 49296  87.9296  32.5921 0001415  89.6246 270.5049 13.20768157152769
ONEWEB-0371             
1 49297U 21090U   24305.08946009 -.00000378  00000+0 -97605-3 0  9992
2 49297  87.9173  63.1024 0001544  94.4143 265.7166 13.19725375149384
ONEWEB-0372             
1 49298U 21090V   24304.54629020  .00000056  00000+0  10540-3 0  9998
2 49298  87.9298  32.7380 0001800  98.9896 261.1441 13.20774326151346
ONEWEB-0373             
1 49299U 21090W   24304.49748749 -.00000124  00000+0 -33784-3 0  9996
2 49299  87.9295  32.7616 0001733 111.7162 248.4156 13.20773084152523
ONEWEB-0374             
1 49300U 21090X   24305.24778257 -.00000198  00000+0 -56866-3 0  9997
2 49300  87.9025  47.8056 0001790 104.3371 255.7957 13.14504254150820
ONEWEB-0375             
1 49301U 21090Y   24304.63637941 -.00000181  00000+0 -47680-3 0  9990
2 49301  87.9295  32.7114 0001559 125.6815 234.4463 13.20771288153335
ONEWEB-0376             
1 49302U 21090Z   24304.63300509  .00000062  00000+0  12315-3 0  9991
2 49302  87.9166  63.1926 0001849  93.6920 266.4424 13.19724230148031
ONEWEB-0377             
1 49303U 21090AA  24305.00110480 -.00000013  00000+0 -62874-4 0  9995
2 49303  87.9296  32.6311 0001401  98.2925 261.8368 13.20772990153361
ONEWEB-0378             
1 49304U 21090AB  24304.64441496  .00000159  00000+0  35834-3 0  9993
2 49304  87.9297  32.7063 0001663 105.7425 254.3892 13.20775342152628
ONEWEB-0379             
1 49305U 21090AC  24305.24302352 -.00000101  00000+0 -30592-3 0  9993
2 49305  87.9026  47.8101 0001762 102.5411 257.5916 13.14503812150836
ONEWEB-0380             
1 49306U 21090AD  24305.08475393  .00000078  00000+0  16187-3 0  9997
2 49306  87.9174  63.1157 0001535 100.3927 259.7379 13.19724487149348
ONEWEB-0381             
1 49307U 21090AE  24304.54327686 -.00000006  00000+0 -45820-4 0  9999
2 49307  87.9299  32.7293 0001549 103.0104 257.1202 13.20772270151336
ONEWEB-0382             
1 49308U 21090AF  24304.53064813 -.00001041  00000+0 -25932-2 0  9999
2 49308  87.9300  32.7276 0001671 115.6296 244.5010 13.20761137151324
ONEWEB-0383             
1 49309U 21090AG  24304.55160015 -.00000149  00000+0 -43548-3 0  9995
2 49309  87.9023  47.9329 0001831 107.6574 252.4755 13.14500723149474
ONEWEB-0384             
1 49310U 21090AH  24304.52747320  .00000052  00000+0  95605-4 0  9997
2 49310  87.9298  32.7419 0001871 118.0115 242.1208 13.20774539151335
ONEWEB-0385             
1 49311U 21090AJ  24305.20456609  .00000154  00000+0  34648-3 0  9993
2 49311  87.9299  32.6086 0001737 112.8779 247.2538 13.20773591152717
ONEWEB-0386             
1 49312U 21090AK  24304.69163472 -.00000215  00000+0 -56044-3 0  9993
2 49312  87.9291  32.6959 0001710 111.7642 248.3674 13.20771605152657
ONEWEB-0387             
1 49313U 21090AL  24304.52431702  .00000117  00000+0  25584-3 0  9994
2 49313  87.9300  32.8006 0001381 108.6433 251.4850 13.20775338151322
ONEWEB-0388             
1 49314U 21090AM  24304.77671973 -.00000098  00000+0 -27792-3 0  9991
2 49314  87.9174  63.1814 0001618 102.4923 257.6390 13.19723279149302
